{"type": "FeatureCollection", "features": [ {"type": "Feature", "properties": {"norad_id": 29853, "name": "FENGYUN 1C DEB", "group": "fengyun-1c-debris", "lat": -51.97197931559373, "lon": -90.3350076871912, "alt_km": 808.035599544558, "timestamp": "2025-12-04T07:39:36.407780+00:00", "meta": {"OBJECT_NAME": "FENGYUN 1C DEB", "OBJECT_ID": "1999-025EX", "EPOCH": "2025-12-03T06:24:55.545120", "MEAN_MOTION": 13.93730913, "ECCENTRICITY": 0.0160969, "INCLINATION": 98.4577, "RA_OF_ASC_NODE": 99.6693, "ARG_OF_PERICENTER": 248.7827, "MEAN_ANOMALY": 109.6075, "EPHEMERIS_TYPE": 0, "CLASSIFICATION_TYPE": "U", "NORAD_CAT_ID": 29853, "ELEMENT_SET_NO": 999, "REV_AT_EPOCH": 95537, "BSTAR": 0.0021915, "MEAN_MOTION_DOT": 3.171e-05, "MEAN_MOTION_DDOT": 0}, "tle": {"line1": "1 29853U 99025EX  25337.26730955  .00003171  00000+0  21915-2 0  9990", "line2": "2 29853  98.4577  99.6693 0160969 248.7827 109.6075 13.93730913955376"}}, "geometry": {"type": "Point", "coordinates": [-90.3350076871912, -51.97197931559373]}}, {"type": "Feature", "properties": {"norad_id": 29854, "name": "FENGYUN 1C DEB", "group": "fengyun-1c-debris", "lat": 76.76219595564147, "lon": 97.95323728528841, "alt_km": 837.372946921555, "timestamp": "2025-12-04T07:39:36.407789+00:00", "meta": {"OBJECT_NAME": "FENGYUN 1C DEB", "OBJECT_ID": "1999-025EY", "EPOCH": "2025-12-03T09:00:14.001984", "MEAN_MOTION": 13.83332644, "ECCENTRICITY": 0.0147549, "INCLINATION": 98.9274, "RA_OF_ASC_NODE": 138.983, "ARG_OF_PERICENTER": 75.9858, "MEAN_ANOMALY": 345.4029, "EPHEMERIS_TYPE": 0, "CLASSIFICATION_TYPE": "U", "NORAD_CAT_ID": 29854, "ELEMENT_SET_NO": 999, "REV_AT_EPOCH": 95214, "BSTAR": 0.00034486, "MEAN_MOTION_DOT": 3.72e-06, "MEAN_MOTION_DDOT": 0}, "tle": {"line1": "1 29854U 99025EY  25337.37516206  .00000372  00000+0  34486-3 0  9992", "line2": "2 29854  98.9274 138.9830 0147549  75.9858 345.4029 13.83332644952148"}}, "geometry": {"type": "Point", "coordinates": [97.95323728528841, 76.76219595564147]}}, {"type": "Feature", "properties": {"norad_id": 29855, "name": "FENGYUN 1C DEB", "group": "fengyun-1c-debris", "lat": 52.61585483330375, "lon": -89.96887580395503, "alt_km": 755.2615046513201, "timestamp": "2025-12-04T07:39:36.407798+00:00", "meta": {"OBJECT_NAME": "FENGYUN 1C DEB", "OBJECT_ID": "1999-025EZ", "EPOCH": "2025-12-02T19:41:00.225600", "MEAN_MOTION": 14.01465354, "ECCENTRICITY": 0.018395, "INCLINATION": 98.1807, "RA_OF_ASC_NODE": 279.5368, "ARG_OF_PERICENTER": 74.0642, "MEAN_ANOMALY": 341.1809, "EPHEMERIS_TYPE": 0, "CLASSIFICATION_TYPE": "U", "NORAD_CAT_ID": 29855, "ELEMENT_SET_NO": 999, "REV_AT_EPOCH": 95573, "BSTAR": 0.002481467, "MEAN_MOTION_DOT": 4.31e-05, "MEAN_MOTION_DDOT": 0}, "tle": {"line1": "1 29855U 99025EZ  25336.82014150  .00004310  00000+0  24815-2 0  9993", "line2": "2 29855  98.1807 279.5368 0183950  74.0642 341.1809 14.01465354955731"}}, "geometry": {"type": "Point", "coordinates": [-89.96887580395503, 52.61585483330375]}}, {"type": "Feature", "properties": {"norad_id": 29856, "name": "FENGYUN 1C DEB", "group": "fengyun-1c-debris", "lat": 3.4124345491658366, "lon": 71.51498343244863, "alt_km": 591.5127098025805, "timestamp": "2025-12-04T07:39:36.407807+00:00", "meta": {"OBJECT_NAME": "FENGYUN 1C DEB", "OBJECT_ID": "1999-025FA", "EPOCH": "2025-12-03T18:56:50.163936", "MEAN_MOTION": 14.47381882, "ECCENTRICITY": 0.02633878, "INCLINATION": 98.6898, "RA_OF_ASC_NODE": 71.493, "ARG_OF_PERICENTER": 324.9876, "MEAN_ANOMALY": 158.1951, "EPHEMERIS_TYPE": 0, "CLASSIFICATION_TYPE": "U", "NORAD_CAT_ID": 29856, "ELEMENT_SET_NO": 999, "REV_AT_EPOCH": 96245, "BSTAR": 0.0032004606, "MEAN_MOTION_DOT": 0.00018154, "MEAN_MOTION_DDOT": 0}, "tle": {"line1": "1 29856U 99025FA  25337.78946949  .00018154  00000+0  32005-2 0  9991", "line2": "2 29856  98.6898  71.4930 0263387 324.9876 158.1951 14.47381882962454"}}, "geometry": {"type": "Point", "coordinates": [71.51498343244863, 3.4124345491658366]}}, {"type": "Feature", "properties": {"norad_id": 29857, "name": "FENGYUN 1C DEB", "group": "fengyun-1c-debris", "lat": -4.385990676837662, "lon": -12.806636489127198, "alt_km": 848.562311439272, "timestamp": "2025-12-04T07:39:36.407817+00:00", "meta": {"OBJECT_NAME": "FENGYUN 1C DEB", "OBJECT_ID": "1999-025FB", "EPOCH": "2025-12-03T00:24:03.975552", "MEAN_MOTION": 13.81815746, "ECCENTRICITY": 0.01930395, "INCLINATION": 98.423, "RA_OF_ASC_NODE": 345.3779, "ARG_OF_PERICENTER": 321.0116, "MEAN_ANOMALY": 37.7254, "EPHEMERIS_TYPE": 0, "CLASSIFICATION_TYPE": "U", "NORAD_CAT_ID": 29857, "ELEMENT_SET_NO": 999, "REV_AT_EPOCH": 94641, "BSTAR": 0.0022431403, "MEAN_MOTION_DOT": 2.73e-05, "MEAN_MOTION_DDOT": 0}, "tle": {"line1": "1 29857U 99025FB  25337.01671268  .00002730  00000+0  22431-2 0  9992", "line2": "2 29857  98.4230 345.3779 0193039 321.0116  37.7254 13.81815746946412"}}, "geometry": {"type": "Point", "coordinates": [-12.806636489127198, -4.385990676837662]}}, {"type": "Feature", "properties": {"norad_id": 29858, "name": "FENGYUN 1C DEB", "group": "fengyun-1c-debris", "lat": 16.810313906488055, "lon": 77.38278360095852, "alt_km": 918.5921052652711, "timestamp": "2025-12-04T07:39:36.407826+00:00", "meta": {"OBJECT_NAME": "FENGYUN 1C DEB", "OBJECT_ID": "1999-025FC", "EPOCH": "2025-12-03T12:42:43.056000", "MEAN_MOTION": 13.77750803, "ECCENTRICITY": 0.01993749, "INCLINATION": 99.2136, "RA_OF_ASC_NODE": 79.4272, "ARG_OF_PERICENTER": 88.8055, "MEAN_ANOMALY": 336.6783, "EPHEMERIS_TYPE": 0, "CLASSIFICATION_TYPE": "U", "NORAD_CAT_ID": 29858, "ELEMENT_SET_NO": 999, "REV_AT_EPOCH": 94427, "BSTAR": 0.0015290036, "MEAN_MOTION_DOT": 1.73e-05, "MEAN_MOTION_DDOT": 0}, "tle": {"line1": "1 29858U 99025FC  25337.52966500  .00001730  00000+0  15290-2 0  9999", "line2": "2 29858  99.2136  79.4272 0199374  88.8055 336.6783 13.77750803944275"}}, "geometry": {"type": "Point", "coordinates": [77.38278360095852, 16.810313906488055]}}, {"type": "Feature", "properties": {"norad_id": 29859, "name": "FENGYUN 1C DEB", "group": "fengyun-1c-debris", "lat": 49.95008992180463, "lon": 164.0476033592245, "alt_km": 1197.6771277844846, "timestamp": "2025-12-04T07:39:36.407835+00:00", "meta": {"OBJECT_NAME": "FENGYUN 1C DEB", "OBJECT_ID": "1999-025FD", "EPOCH": "2025-12-03T12:10:34.845600", "MEAN_MOTION": 13.73936088, "ECCENTRICITY": 0.02956284, "INCLINATION": 98.3348, "RA_OF_ASC_NODE": 173.3817, "ARG_OF_PERICENTER": 237.9169, "MEAN_ANOMALY": 119.2968, "EPHEMERIS_TYPE": 0, "CLASSIFICATION_TYPE": "U", "NORAD_CAT_ID": 29859, "ELEMENT_SET_NO": 999, "REV_AT_EPOCH": 93853, "BSTAR": 0.0036431322, "MEAN_MOTION_DOT": 4.649e-05, "MEAN_MOTION_DDOT": 0}, "tle": {"line1": "1 29859U 99025FD  25337.50734775  .00004649  00000+0  36431-2 0  9997", "line2": "2 29859  98.3348 173.3817 0295628 237.9169 119.2968 13.73936088938531"}}, "geometry": {"type": "Point", "coordinates": [164.0476033592245, 49.95008992180463]}}, {"type": "Feature", "properties": {"norad_id": 29860, "name": "FENGYUN 1C DEB", "group": "fengyun-1c-debris", "lat": 81.16132925464609, "lon": -64.22188358206785, "alt_km": 939.007844165918, "timestamp": "2025-12-04T07:39:36.407844+00:00", "meta": {"OBJECT_NAME": "FENGYUN 1C DEB", "OBJECT_ID": "1999-025FE", "EPOCH": "2025-12-03T01:54:18.158976", "MEAN_MOTION": 13.7744939, "ECCENTRICITY": 0.02211611, "INCLINATION": 98.6181, "RA_OF_ASC_NODE": 11.8801, "ARG_OF_PERICENTER": 9.5051, "MEAN_ANOMALY": 51.4532, "EPHEMERIS_TYPE": 0, "CLASSIFICATION_TYPE": "U", "NORAD_CAT_ID": 29860, "ELEMENT_SET_NO": 999, "REV_AT_EPOCH": 94006, "BSTAR": 0.0029465578, "MEAN_MOTION_DOT": 3.474e-05, "MEAN_MOTION_DDOT": 0}, "tle": {"line1": "1 29860U 99025FE  25337.07937684  .00003474  00000+0  29466-2 0  9990", "line2": "2 29860  98.6181  11.8801 0221161   9.5051  51.4532 13.77449390940068"}}, "geometry": {"type": "Point", "coordinates": [-64.22188358206785, 81.16132925464609]}}, {"type": "Feature", "properties": {"norad_id": 29865, "name": "FENGYUN 1C DEB", "group": "fengyun-1c-debris", "lat": -60.667834900154034, "lon": 51.87535698360711, "alt_km": 605.4033677532288, "timestamp": "2025-12-04T07:39:36.407853+00:00", "meta": {"OBJECT_NAME": "FENGYUN 1C DEB", "OBJECT_ID": "1999-025FK", "EPOCH": "2025-12-03T17:55:58.757376", "MEAN_MOTION": 14.82426768, "ECCENTRICITY": 0.01159651, "INCLINATION": 98.9203, "RA_OF_ASC_NODE": 247.4695, "ARG_OF_PERICENTER": 169.7845, "MEAN_ANOMALY": 260.2049, "EPHEMERIS_TYPE": 0, "CLASSIFICATION_TYPE": "U", "NORAD_CAT_ID": 29865, "ELEMENT_SET_NO": 999, "REV_AT_EPOCH": 625, "BSTAR": 0.00092158715, "MEAN_MOTION_DOT": 8.244e-05, "MEAN_MOTION_DDOT": 0}, "tle": {"line1": "1 29865U 99025FK  25337.74720784  .00008244  00000+0  92159-3 0  9990", "line2": "2 29865  98.9203 247.4695 0115965 169.7845 260.2049 14.82426768  6251"}}, "geometry": {"type": "Point", "coordinates": [51.87535698360711, -60.667834900154034]}}, {"type": "Feature", "properties": {"norad_id": 29866, "name": "FENGYUN 1C DEB", "group": "fengyun-1c-debris", "lat": -24.437939699965224, "lon": 140.56675868157106, "alt_km": 574.9968126241556, "timestamp": "2025-12-04T07:39:36.407862+00:00", "meta": {"OBJECT_NAME": "FENGYUN 1C DEB", "OBJECT_ID": "1999-025FL", "EPOCH": "2025-12-03T22:46:03.065376", "MEAN_MOTION": 14.64157542, "ECCENTRICITY": 0.01940945, "INCLINATION": 98.036, "RA_OF_ASC_NODE": 323.8858, "ARG_OF_PERICENTER": 242.7769, "MEAN_ANOMALY": 171.2715, "EPHEMERIS_TYPE": 0, "CLASSIFICATION_TYPE": "U", "NORAD_CAT_ID": 29866, "ELEMENT_SET_NO": 999, "REV_AT_EPOCH": 198, "BSTAR": 0.00064807805, "MEAN_MOTION_DOT": 4.432e-05, "MEAN_MOTION_DDOT": 0}, "tle": {"line1": "1 29866U 99025FL  25337.94864659  .00004432  00000+0  64808-3 0  9998", "line2": "2 29866  98.0360 323.8858 0194094 242.7769 171.2715 14.64157542  1981"}}, "geometry": {"type": "Point", "coordinates": [140.56675868157106, -24.437939699965224]}}]}